{"type": "FeatureCollection", "features": [{"type": "Feature", "properties": {"norad_id": 28890, "name": "BEIJING 1", "group": "dmc", "lat": -69.53568028683979, "lon": 142.2568168939527, "alt_km": 700.0317484704274, "timestamp": "2025-12-17T19:34:07.711241+00:00", "meta": {"OBJECT_NAME": "BEIJING 1", "OBJECT_ID": "2005-043A", "EPOCH": "2025-12-17T08:24:27.033696", "MEAN_MOTION": 14.63370965, "ECCENTRICITY": 0.0015504, "INCLINATION": 98.2647, "RA_OF_ASC_NODE": 118.8675, "ARG_OF_PERICENTER": 127.5155, "MEAN_ANOMALY": 232.7458, "EPHEMERIS_TYPE": 0, "CLASSIFICATION_TYPE": "U", "NORAD_CAT_ID": 28890, "ELEMENT_SET_NO": 999, "REV_AT_EPOCH": 7405, "BSTAR": 7.6047546e-05, "MEAN_MOTION_DOT": 3.45e-06, "MEAN_MOTION_DDOT": 0}, "tle": {"line1": "1 28890U 05043A   25351.35031289  .00000345  00000+0  76048-4 0  9996", "line2": "2 28890  98.2647 118.8675 0015504 127.5155 232.7458 14.63370965 74053"}}, "geometry": {"type": "Point", "coordinates": [142.2568168939527, -69.53568028683979]}}, {"type": "Feature", "properties": {"norad_id": 33320, "name": "HUANJING 1A (HJ-1A)", "group": "dmc", "lat": -38.41983278663637, "lon": -13.97486301502138, "alt_km": 617.4791584332679, "timestamp": "2025-12-17T19:34:07.711265+00:00", "meta": {"OBJECT_NAME": "HUANJING 1A (HJ-1A)", "OBJECT_ID": "2008-041A", "EPOCH": "2025-12-17T06:47:30.897600", "MEAN_MOTION": 14.83411479, "ECCENTRICITY": 0.00198924, "INCLINATION": 97.6538, "RA_OF_ASC_NODE": 339.3922, "ARG_OF_PERICENTER": 20.2102, "MEAN_ANOMALY": 339.9896, "EPHEMERIS_TYPE": 0, "CLASSIFICATION_TYPE": "U", "NORAD_CAT_ID": 33320, "ELEMENT_SET_NO": 999, "REV_AT_EPOCH": 93143, "BSTAR": 0.00020761765, "MEAN_MOTION_DOT": 1.658e-05, "MEAN_MOTION_DDOT": 0}, "tle": {"line1": "1 33320U 08041A   25351.28299650  .00001658  00000+0  20762-3 0  9990", "line2": "2 33320  97.6538 339.3922 0019892  20.2102 339.9896 14.83411479931437"}}, "geometry": {"type": "Point", "coordinates": [-13.97486301502138, -38.41983278663637]}}, {"type": "Feature", "properties": {"norad_id": 33321, "name": "HUANJING 1B (HJ-1B)", "group": "dmc", "lat": 7.3543898639256495, "lon": 164.57869173474194, "alt_km": 632.7254722180323, "timestamp": "2025-12-17T19:34:07.711279+00:00", "meta": {"OBJECT_NAME": "HUANJING 1B (HJ-1B)", "OBJECT_ID": "2008-041B", "EPOCH": "2025-12-17T04:13:16.976352", "MEAN_MOTION": 14.828325, "ECCENTRICITY": 0.00381446, "INCLINATION": 97.6398, "RA_OF_ASC_NODE": 342.9749, "ARG_OF_PERICENTER": 61.65, "MEAN_ANOMALY": 298.8553, "EPHEMERIS_TYPE": 0, "CLASSIFICATION_TYPE": "U", "NORAD_CAT_ID": 33321, "ELEMENT_SET_NO": 999, "REV_AT_EPOCH": 93143, "BSTAR": 8.1189085e-05, "MEAN_MOTION_DOT": 6.14e-06, "MEAN_MOTION_DDOT": 0}, "tle": {"line1": "1 33321U 08041B   25351.17589093  .00000614  00000+0  81189-4 0  9994", "line2": "2 33321  97.6398 342.9749 0038144  61.6500 298.8553 14.82832500931435"}}, "geometry": {"type": "Point", "coordinates": [164.57869173474194, 7.3543898639256495]}}, {"type": "Feature", "properties": {"norad_id": 33446, "name": "YAOGAN-4", "group": "dmc", "lat": 78.3103760629691, "lon": -120.41372568637422, "alt_km": 620.1632260402939, "timestamp": "2025-12-17T19:34:07.711292+00:00", "meta": {"OBJECT_NAME": "YAOGAN-4", "OBJECT_ID": "2008-061A", "EPOCH": "2025-12-17T07:51:55.678464", "MEAN_MOTION": 14.82696189, "ECCENTRICITY": 0.0013301, "INCLINATION": 97.9188, "RA_OF_ASC_NODE": 281.382, "ARG_OF_PERICENTER": 307.3083, "MEAN_ANOMALY": 52.6917, "EPHEMERIS_TYPE": 0, "CLASSIFICATION_TYPE": "U", "NORAD_CAT_ID": 33446, "ELEMENT_SET_NO": 999, "REV_AT_EPOCH": 91871, "BSTAR": 0.00015900688, "MEAN_MOTION_DOT": 1.231e-05, "MEAN_MOTION_DDOT": 0}, "tle": {"line1": "1 33446U 08061A   25351.32772776  .00001231  00000+0  15901-3 0  9997", "line2": "2 33446  97.9188 281.3820 0013301 307.3083  52.6917 14.82696189918710"}}, "geometry": {"type": "Point", "coordinates": [-120.41372568637422, 78.3103760629691]}}, {"type": "Feature", "properties": {"norad_id": 35681, "name": "DEIMOS-1", "group": "dmc", "lat": 68.4977450655907, "lon": 132.05607713288032, "alt_km": 636.7623092366402, "timestamp": "2025-12-17T19:34:07.711304+00:00", "meta": {"OBJECT_NAME": "DEIMOS-1", "OBJECT_ID": "2009-041A", "EPOCH": "2025-12-17T07:51:22.449024", "MEAN_MOTION": 14.74959408, "ECCENTRICITY": 0.00026568, "INCLINATION": 97.7143, "RA_OF_ASC_NODE": 151.7163, "ARG_OF_PERICENTER": 71.7768, "MEAN_ANOMALY": 288.3731, "EPHEMERIS_TYPE": 0, "CLASSIFICATION_TYPE": "U", "NORAD_CAT_ID": 35681, "ELEMENT_SET_NO": 999, "REV_AT_EPOCH": 88007, "BSTAR": 6.8972831e-05, "MEAN_MOTION_DOT": 4.16e-06, "MEAN_MOTION_DDOT": 0}, "tle": {"line1": "1 35681U 09041A   25351.32734316  .00000416  00000+0  68973-4 0  9999", "line2": "2 35681  97.7143 151.7163 0002656  71.7768 288.3731 14.74959408880071"}}, "geometry": {"type": "Point", "coordinates": [132.05607713288032, 68.4977450655907]}}, {"type": "Feature", "properties": {"norad_id": 35683, "name": "UK-DMC 2", "group": "dmc", "lat": 79.29023870465268, "lon": -6.541022377707082, "alt_km": 634.7539005234248, "timestamp": "2025-12-17T19:34:07.711316+00:00", "meta": {"OBJECT_NAME": "UK-DMC 2", "OBJECT_ID": "2009-041C", "EPOCH": "2025-12-17T07:44:16.052928", "MEAN_MOTION": 14.75631912, "ECCENTRICITY": 0.00014733, "INCLINATION": 97.8554, "RA_OF_ASC_NODE": 126.0951, "ARG_OF_PERICENTER": 94.8634, "MEAN_ANOMALY": 265.2744, "EPHEMERIS_TYPE": 0, "CLASSIFICATION_TYPE": "U", "NORAD_CAT_ID": 35683, "ELEMENT_SET_NO": 999, "REV_AT_EPOCH": 87974, "BSTAR": 0.00011458706, "MEAN_MOTION_DOT": 7.33e-06, "MEAN_MOTION_DDOT": 0}, "tle": {"line1": "1 35683U 09041C   25351.32240802  .00000733  00000+0  11459-3 0  9991", "line2": "2 35683  97.8554 126.0951 0001473  94.8634 265.2744 14.75631912879742"}}, "geometry": {"type": "Point", "coordinates": [-6.541022377707082, 79.29023870465268]}}, {"type": "Feature", "properties": {"norad_id": 40715, "name": "DMC3-FM1", "group": "dmc", "lat": -34.42522815195128, "lon": -135.8783074689534, "alt_km": 615.6262772759683, "timestamp": "2025-12-17T19:34:07.711327+00:00", "meta": {"OBJECT_NAME": "DMC3-FM1", "OBJECT_ID": "2015-032A", "EPOCH": "2025-12-17T06:47:29.873760", "MEAN_MOTION": 14.8544928, "ECCENTRICITY": 0.000435, "INCLINATION": 97.6694, "RA_OF_ASC_NODE": 218.3098, "ARG_OF_PERICENTER": 304.503, "MEAN_ANOMALY": 55.5774, "EPHEMERIS_TYPE": 0, "CLASSIFICATION_TYPE": "U", "NORAD_CAT_ID": 40715, "ELEMENT_SET_NO": 999, "REV_AT_EPOCH": 56290, "BSTAR": 8.2547964e-05, "MEAN_MOTION_DOT": 6.6e-06, "MEAN_MOTION_DDOT": 0}, "tle": {"line1": "1 40715U 15032A   25351.28298465  .00000660  00000+0  82548-4 0  9990", "line2": "2 40715  97.6694 218.3098 0004350 304.5030  55.5774 14.85449280562908"}}, "geometry": {"type": "Point", "coordinates": [-135.8783074689534, -34.42522815195128]}}, {"type": "Feature", "properties": {"norad_id": 40716, "name": "DMC3-FM2", "group": "dmc", "lat": -24.913617722629283, "lon": 36.678956040267536, "alt_km": 618.5914754352152, "timestamp": "2025-12-17T19:34:07.711337+00:00", "meta": {"OBJECT_NAME": "DMC3-FM2", "OBJECT_ID": "2015-032B", "EPOCH": "2025-12-17T07:19:53.164416", "MEAN_MOTION": 14.85447508, "ECCENTRICITY": 0.00050029, "INCLINATION": 97.6752, "RA_OF_ASC_NODE": 219.7786, "ARG_OF_PERICENTER": 309.6369, "MEAN_ANOMALY": 50.4405, "EPHEMERIS_TYPE": 0, "CLASSIFICATION_TYPE": "U", "NORAD_CAT_ID": 40716, "ELEMENT_SET_NO": 999, "REV_AT_EPOCH": 56290, "BSTAR": 4.915108e-06, "MEAN_MOTION_DOT": -9e-08, "MEAN_MOTION_DDOT": 0}, "tle": {"line1": "1 40716U 15032B   25351.30547644 -.00000009  00000+0  49151-5 0  9992", "line2": "2 40716  97.6752 219.7786 0005002 309.6369  50.4405 14.85447508562905"}}, "geometry": {"type": "Point", "coordinates": [36.678956040267536, -24.913617722629283]}}, {"type": "Feature", "properties": {"norad_id": 40717, "name": "DMC3-FM3", "group": "dmc", "lat": 82.28631687672656, "lon": 136.82340823232627, "alt_km": 607.1029292295416, "timestamp": "2025-12-17T19:34:07.711347+00:00", "meta": {"OBJECT_NAME": "DMC3-FM3", "OBJECT_ID": "2015-032C", "EPOCH": "2025-12-17T06:14:04.732800", "MEAN_MOTION": 14.8543508, "ECCENTRICITY": 0.0004374, "INCLINATION": 97.6805, "RA_OF_ASC_NODE": 221.3703, "ARG_OF_PERICENTER": 310.9235, "MEAN_ANOMALY": 49.1601, "EPHEMERIS_TYPE": 0, "CLASSIFICATION_TYPE": "U", "NORAD_CAT_ID": 40717, "ELEMENT_SET_NO": 999, "REV_AT_EPOCH": 56290, "BSTAR": 3.2513216e-05, "MEAN_MOTION_DOT": 2.29e-06, "MEAN_MOTION_DDOT": 0}, "tle": {"line1": "1 40717U 15032C   25351.25977700  .00000229  00000+0  32513-4 0  9993", "line2": "2 40717  97.6805 221.3703 0004374 310.9235  49.1601 14.85435080562906"}}, "geometry": {"type": "Point", "coordinates": [136.82340823232627, 82.28631687672656]}}]}